{"type": "FeatureCollection", "features": [ {"type": "Feature", "properties": {"norad_id": 66715, "name": "FLOCK 4H-12", "group": "last-30-days", "lat": 73.29719944133203, "lon": -87.68614562687809, "alt_km": 504.65132641797845, "timestamp": "2025-12-20T20:38:43.172171+00:00", "meta": {"OBJECT_NAME": "FLOCK 4H-12", "OBJECT_ID": "2025-276BB", "EPOCH": "2025-12-20T13:51:23.617152", "MEAN_MOTION": 15.18047781, "ECCENTRICITY": 0.00018031, "INCLINATION": 97.4405, "RA_OF_ASC_NODE": 66.217, "ARG_OF_PERICENTER": 192.5669, "MEAN_ANOMALY": 167.552, "EPHEMERIS_TYPE": 0, "CLASSIFICATION_TYPE": "U", "NORAD_CAT_ID": 66715, "ELEMENT_SET_NO": 999, "REV_AT_EPOCH": 362, "BSTAR": 0.00028862465, "MEAN_MOTION_DOT": 5.81e-05, "MEAN_MOTION_DDOT": 0}, "tle": {"line1": "1 66715U 25276BB  25354.57735668  .00005810  00000+0  28862-3 0  9995", "line2": "2 66715  97.4405  66.2170 0001803 192.5669 167.5520 15.18047781  3627"}}, "geometry": {"type": "Point", "coordinates": [-87.68614562687809, 73.29719944133203]}}, {"type": "Feature", "properties": {"norad_id": 66716, "name": "FLOCK 4H-13", "group": "last-30-days", "lat": 63.49354754224774, "lon": -98.28786303775682, "alt_km": 504.29011273591095, "timestamp": "2025-12-20T20:38:43.172181+00:00", "meta": {"OBJECT_NAME": "FLOCK 4H-13", "OBJECT_ID": "2025-276BC", "EPOCH": "2025-12-20T13:48:39.769920", "MEAN_MOTION": 15.18159822, "ECCENTRICITY": 0.00015762, "INCLINATION": 97.444, "RA_OF_ASC_NODE": 66.2332, "ARG_OF_PERICENTER": 146.7753, "MEAN_ANOMALY": 213.358, "EPHEMERIS_TYPE": 0, "CLASSIFICATION_TYPE": "U", "NORAD_CAT_ID": 66716, "ELEMENT_SET_NO": 999, "REV_AT_EPOCH": 331, "BSTAR": 0.0003056519, "MEAN_MOTION_DOT": 6.177e-05, "MEAN_MOTION_DDOT": 0}, "tle": {"line1": "1 66716U 25276BC  25354.57546030  .00006177  00000+0  30565-3 0  9999", "line2": "2 66716  97.4440  66.2332 0001576 146.7753 213.3580 15.18159822  3311"}}, "geometry": {"type": "Point", "coordinates": [-98.28786303775682, 63.49354754224774]}}, {"type": "Feature", "properties": {"norad_id": 66717, "name": "FLOCK 4H-14", "group": "last-30-days", "lat": 54.08120335637909, "lon": -103.09001690891408, "alt_km": 504.87552023496664, "timestamp": "2025-12-20T20:38:43.172192+00:00", "meta": {"OBJECT_NAME": "FLOCK 4H-14", "OBJECT_ID": "2025-276BD", "EPOCH": "2025-12-20T13:46:08.760000", "MEAN_MOTION": 15.18311745, "ECCENTRICITY": 0.00014506, "INCLINATION": 97.4426, "RA_OF_ASC_NODE": 66.2313, "ARG_OF_PERICENTER": 132.5712, "MEAN_ANOMALY": 227.5644, "EPHEMERIS_TYPE": 0, "CLASSIFICATION_TYPE": "U", "NORAD_CAT_ID": 66717, "ELEMENT_SET_NO": 999, "REV_AT_EPOCH": 256, "BSTAR": 0.00026140996, "MEAN_MOTION_DOT": 5.296e-05, "MEAN_MOTION_DDOT": 0}, "tle": {"line1": "1 66717U 25276BD  25354.57371250  .00005296  00000+0  26141-3 0  9996", "line2": "2 66717  97.4426  66.2313 0001450 132.5712 227.5644 15.18311745  2562"}}, "geometry": {"type": "Point", "coordinates": [-103.09001690891408, 54.08120335637909]}}, {"type": "Feature", "properties": {"norad_id": 66718, "name": "FLOCK 4H-15", "group": "last-30-days", "lat": 32.30137936880824, "lon": 61.73628656383506, "alt_km": 513.6333706747346, "timestamp": "2025-12-20T20:38:43.172201+00:00", "meta": {"OBJECT_NAME": "FLOCK 4H-15", "OBJECT_ID": "2025-276BE", "EPOCH": "2025-12-20T01:30:21.849696", "MEAN_MOTION": 15.17073597, "ECCENTRICITY": 0.00030538, "INCLINATION": 97.4434, "RA_OF_ASC_NODE": 65.6942, "ARG_OF_PERICENTER": 283.5024, "MEAN_ANOMALY": 76.5869, "EPHEMERIS_TYPE": 0, "CLASSIFICATION_TYPE": "U", "NORAD_CAT_ID": 66718, "ELEMENT_SET_NO": 999, "REV_AT_EPOCH": 323, "BSTAR": 0.00022690308, "MEAN_MOTION_DOT": 4.427e-05, "MEAN_MOTION_DDOT": 0}, "tle": {"line1": "1 66718U 25276BE  25354.06275289  .00004427  00000+0  22690-3 0  9996", "line2": "2 66718  97.4434  65.6942 0003053 283.5024  76.5869 15.17073597  3232"}}, "geometry": {"type": "Point", "coordinates": [61.73628656383506, 32.30137936880824]}}, {"type": "Feature", "properties": {"norad_id": 66719, "name": "FLOCK 4H-16", "group": "last-30-days", "lat": 40.59826778812023, "lon": 60.05070778923654, "alt_km": 512.7131047824068, "timestamp": "2025-12-20T20:38:43.172212+00:00", "meta": {"OBJECT_NAME": "FLOCK 4H-16", "OBJECT_ID": "2025-276BF", "EPOCH": "2025-12-20T14:08:00.960000", "MEAN_MOTION": 15.17195126, "ECCENTRICITY": 0.00029631, "INCLINATION": 97.4451, "RA_OF_ASC_NODE": 66.2191, "ARG_OF_PERICENTER": 263.247, "MEAN_ANOMALY": 96.8426, "EPHEMERIS_TYPE": 0, "CLASSIFICATION_TYPE": "U", "NORAD_CAT_ID": 66719, "ELEMENT_SET_NO": 999, "REV_AT_EPOCH": 331, "BSTAR": 0.00039433509, "MEAN_MOTION_DOT": 7.772e-05, "MEAN_MOTION_DDOT": 0}, "tle": {"line1": "1 66719U 25276BF  25354.58890000  .00007772  00000+0  39434-3 0  9998", "line2": "2 66719  97.4451  66.2191 0002963 263.2470  96.8426 15.17195126  3310"}}, "geometry": {"type": "Point", "coordinates": [60.05070778923654, 40.59826778812023]}}, {"type": "Feature", "properties": {"norad_id": 66720, "name": "FLOCK 4H-17", "group": "last-30-days", "lat": 72.99473094231139, "lon": -88.16931883547689, "alt_km": 504.8831927260062, "timestamp": "2025-12-20T20:38:43.172222+00:00", "meta": {"OBJECT_NAME": "FLOCK 4H-17", "OBJECT_ID": "2025-276BG", "EPOCH": "2025-12-20T04:21:46.615392", "MEAN_MOTION": 15.18028916, "ECCENTRICITY": 0.00024739, "INCLINATION": 97.4453, "RA_OF_ASC_NODE": 65.8481, "ARG_OF_PERICENTER": 200.8658, "MEAN_ANOMALY": 159.2476, "EPHEMERIS_TYPE": 0, "CLASSIFICATION_TYPE": "U", "NORAD_CAT_ID": 66720, "ELEMENT_SET_NO": 999, "REV_AT_EPOCH": 325, "BSTAR": 0.00029797788, "MEAN_MOTION_DOT": 5.998e-05, "MEAN_MOTION_DDOT": 0}, "tle": {"line1": "1 66720U 25276BG  25354.18178953  .00005998  00000+0  29798-3 0  9992", "line2": "2 66720  97.4453  65.8481 0002473 200.8658 159.2476 15.18028916  3257"}}, "geometry": {"type": "Point", "coordinates": [-88.16931883547689, 72.99473094231139]}}, {"type": "Feature", "properties": {"norad_id": 66721, "name": "FLOCK 4H-18", "group": "last-30-days", "lat": 34.98117006368189, "lon": 61.220658241314744, "alt_km": 512.7884428745938, "timestamp": "2025-12-20T20:38:43.172231+00:00", "meta": {"OBJECT_NAME": "FLOCK 4H-18", "OBJECT_ID": "2025-276BH", "EPOCH": "2025-12-20T14:09:30.009888", "MEAN_MOTION": 15.17118542, "ECCENTRICITY": 0.00027844, "INCLINATION": 97.4376, "RA_OF_ASC_NODE": 66.2, "ARG_OF_PERICENTER": 291.1596, "MEAN_ANOMALY": 68.934, "EPHEMERIS_TYPE": 0, "CLASSIFICATION_TYPE": "U", "NORAD_CAT_ID": 66721, "ELEMENT_SET_NO": 999, "REV_AT_EPOCH": 331, "BSTAR": 0.00053907394, "MEAN_MOTION_DOT": 0.0001063, "MEAN_MOTION_DDOT": 0}, "tle": {"line1": "1 66721U 25276BH  25354.58993067  .00010630  00000+0  53907-3 0  9996", "line2": "2 66721  97.4376  66.2000 0002784 291.1596  68.9340 15.17118542  3310"}}, "geometry": {"type": "Point", "coordinates": [61.220658241314744, 34.98117006368189]}}, {"type": "Feature", "properties": {"norad_id": 66722, "name": "FLOCK 4H-19", "group": "last-30-days", "lat": 59.5545848305775, "lon": -100.65171867251651, "alt_km": 504.3828987724082, "timestamp": "2025-12-20T20:38:43.172242+00:00", "meta": {"OBJECT_NAME": "FLOCK 4H-19", "OBJECT_ID": "2025-276BJ", "EPOCH": "2025-12-20T13:47:35.654208", "MEAN_MOTION": 15.18202335, "ECCENTRICITY": 0.00021953, "INCLINATION": 97.44, "RA_OF_ASC_NODE": 66.2215, "ARG_OF_PERICENTER": 161.3357, "MEAN_ANOMALY": 198.7958, "EPHEMERIS_TYPE": 0, "CLASSIFICATION_TYPE": "U", "NORAD_CAT_ID": 66722, "ELEMENT_SET_NO": 999, "REV_AT_EPOCH": 260, "BSTAR": 0.00030709309, "MEAN_MOTION_DOT": 6.214e-05, "MEAN_MOTION_DDOT": 0}, "tle": {"line1": "1 66722U 25276BJ  25354.57471822  .00006214  00000+0  30709-3 0  9994", "line2": "2 66722  97.4400  66.2215 0002195 161.3357 198.7958 15.18202335  2609"}}, "geometry": {"type": "Point", "coordinates": [-100.65171867251651, 59.5545848305775]}}, {"type": "Feature", "properties": {"norad_id": 66723, "name": "FLOCK 4H-20", "group": "last-30-days", "lat": 56.74220277227155, "lon": -101.98483787168868, "alt_km": 504.6275598118327, "timestamp": "2025-12-20T20:38:43.172254+00:00", "meta": {"OBJECT_NAME": "FLOCK 4H-20", "OBJECT_ID": "2025-276BK", "EPOCH": "2025-12-20T13:46:50.563776", "MEAN_MOTION": 15.18262017, "ECCENTRICITY": 0.00026965, "INCLINATION": 97.4435, "RA_OF_ASC_NODE": 66.2346, "ARG_OF_PERICENTER": 178.9059, "MEAN_ANOMALY": 181.2181, "EPHEMERIS_TYPE": 0, "CLASSIFICATION_TYPE": "U", "NORAD_CAT_ID": 66723, "ELEMENT_SET_NO": 999, "REV_AT_EPOCH": 256, "BSTAR": 0.00033027112, "MEAN_MOTION_DOT": 6.7e-05, "MEAN_MOTION_DDOT": 0}, "tle": {"line1": "1 66723U 25276BK  25354.57419634  .00006700  00000+0  33027-3 0  9994", "line2": "2 66723  97.4435  66.2346 0002696 178.9059 181.2181 15.18262017  2565"}}, "geometry": {"type": "Point", "coordinates": [-101.98483787168868, 56.74220277227155]}}, {"type": "Feature", "properties": {"norad_id": 66724, "name": "FLOCK 4H-21", "group": "last-30-days", "lat": 54.266785665224894, "lon": -103.03167506280663, "alt_km": 504.76107414229773, "timestamp": "2025-12-20T20:38:43.172266+00:00", "meta": {"OBJECT_NAME": "FLOCK 4H-21", "OBJECT_ID": "2025-276BL", "EPOCH": "2025-12-20T13:46:11.550720", "MEAN_MOTION": 15.18324449, "ECCENTRICITY": 0.00022469, "INCLINATION": 97.4398, "RA_OF_ASC_NODE": 66.2218, "ARG_OF_PERICENTER": 173.6251, "MEAN_ANOMALY": 186.5012, "EPHEMERIS_TYPE": 0, "CLASSIFICATION_TYPE": "U", "NORAD_CAT_ID": 66724, "ELEMENT_SET_NO": 999, "REV_AT_EPOCH": 256, "BSTAR": 0.00033117758, "MEAN_MOTION_DOT": 6.731e-05, "MEAN_MOTION_DDOT": 0}, "tle": {"line1": "1 66724U 25276BL  25354.57374480  .00006731  00000+0  33118-3 0  9999", "line2": "2 66724  97.4398  66.2218 0002246 173.6251 186.5012 15.18324449  2568"}}, "geometry": {"type": "Point", "coordinates": [-103.03167506280663, 54.266785665224894]}}]}